[{"OBJECT_NAME":"SL-14 R/B","OBJECT_ID":"1986-006B","EPOCH":"2026-04-01T03:11:22.381152","MEAN_MOTION":14.86853439,"ECCENTRICITY":0.0076051,"INCLINATION":82.5256,"RA_OF_ASC_NODE":238.61,"ARG_OF_PERICENTER":197.2502,"MEAN_ANOMALY":162.613,"EPHEMERIS_TYPE":0,"CLASSIFICATION_TYPE":"U","NORAD_CAT_ID":16496,"ELEMENT_SET_NO":999,"REV_AT_EPOCH":15254,"BSTAR":0.00013238,"MEAN_MOTION_DOT":1.271e-5,"MEAN_MOTION_DDOT":0},{"OBJECT_NAME":"COSMOS 1743","OBJECT_ID":"1986-034A","EPOCH":"2026-04-01T03:57:24.989184","MEAN_MOTION":15.60504561,"ECCENTRICITY":0.0005145,"INCLINATION":82.5312,"RA_OF_ASC_NODE":50.2086,"ARG_OF_PERICENTER":162.0075,"MEAN_ANOMALY":198.1365,"EPHEMERIS_TYPE":0,"CLASSIFICATION_TYPE":"U","NORAD_CAT_ID":16719,"ELEMENT_SET_NO":999,"REV_AT_EPOCH":18375,"BSTAR":0.00073956,"MEAN_MOTION_DOT":0.00061283,"MEAN_MOTION_DDOT":0},{"OBJECT_NAME":"SL-14 R/B","OBJECT_ID":"1986-046B","EPOCH":"2026-04-01T04:03:26.651808","MEAN_MOTION":14.8561321,"ECCENTRICITY":0.0023838,"INCLINATION":82.4809,"RA_OF_ASC_NODE":58.9367,"ARG_OF_PERICENTER":150.2972,"MEAN_ANOMALY":209.9603,"EPHEMERIS_TYPE":0,"CLASSIFICATION_TYPE":"U","NORAD_CAT_ID":16792,"ELEMENT_SET_NO":999,"REV_AT_EPOCH":12974,"BSTAR":7.4774e-5,"MEAN_MOTION_DOT":6.75e-6,"MEAN_MOTION_DDOT":0},{"OBJECT_NAME":"SL-14 R/B","OBJECT_ID":"1986-055B","EPOCH":"2026-04-01T02:18:08.809920","MEAN_MOTION":14.85663219,"ECCENTRICITY":0.0017345,"INCLINATION":82.5169,"RA_OF_ASC_NODE":105.608,"ARG_OF_PERICENTER":257.0214,"MEAN_ANOMALY":161.4915,"EPHEMERIS_TYPE":0,"CLASSIFICATION_TYPE":"U","NORAD_CAT_ID":16882,"ELEMENT_SET_NO":999,"REV_AT_EPOCH":12269,"BSTAR":6.5368e-5,"MEAN_MOTION_DOT":5.92e-6,"MEAN_MOTION_DDOT":0},{"OBJECT_NAME":"AJISAI (EGS)","OBJECT_ID":"1986-061A","EPOCH":"2026-04-01T05:14:56.753088","MEAN_MOTION":12.44515609,"ECCENTRICITY":0.0011352,"INCLINATION":50.0118,"RA_OF_ASC_NODE":24.0703,"ARG_OF_PERICENTER":345.0254,"MEAN_ANOMALY":161.7588,"EPHEMERIS_TYPE":0,"CLASSIFICATION_TYPE":"U","NORAD_CAT_ID":16908,"ELEMENT_SET_NO":999,"REV_AT_EPOCH":47080,"BSTAR":-6.9829e-5,"MEAN_MOTION_DOT":-1.07e-6,"MEAN_MOTION_DDOT":0},{"OBJECT_NAME":"SL-14 R/B","OBJECT_ID":"1987-024B","EPOCH":"2026-04-01T04:39:44.559936","MEAN_MOTION":14.86153927,"ECCENTRICITY":0.0018119,"INCLINATION":82.5258,"RA_OF_ASC_NODE":71.6056,"ARG_OF_PERICENTER":181.2581,"MEAN_ANOMALY":178.8593,"EPHEMERIS_TYPE":0,"CLASSIFICATION_TYPE":"U","NORAD_CAT_ID":17567,"ELEMENT_SET_NO":999,"REV_AT_EPOCH":9147,"BSTAR":5.8699e-5,"MEAN_MOTION_DOT":5.4e-6,"MEAN_MOTION_DDOT":0},{"OBJECT_NAME":"COSMOS 1833","OBJECT_ID":"1987-027A","EPOCH":"2026-03-31T22:43:15.484800","MEAN_MOTION":14.13045976,"ECCENTRICITY":0.00231191,"INCLINATION":70.9168,"RA_OF_ASC_NODE":279.2366,"ARG_OF_PERICENTER":181.5532,"MEAN_ANOMALY":178.5522,"EPHEMERIS_TYPE":0,"CLASSIFICATION_TYPE":"U","NORAD_CAT_ID":17589,"ELEMENT_SET_NO":999,"REV_AT_EPOCH":1346,"BSTAR":-0.00013135864,"MEAN_MOTION_DOT":-2.94e-6,"MEAN_MOTION_DDOT":0},{"OBJECT_NAME":"SL-16 R/B","OBJECT_ID":"1987-027B","EPOCH":"2026-03-31T18:50:42.892224","MEAN_MOTION":14.17166527,"ECCENTRICITY":0.00028824,"INCLINATION":71.0019,"RA_OF_ASC_NODE":229.9302,"ARG_OF_PERICENTER":87.8147,"MEAN_ANOMALY":272.3307,"EPHEMERIS_TYPE":0,"CLASSIFICATION_TYPE":"U","NORAD_CAT_ID":17590,"ELEMENT_SET_NO":999,"REV_AT_EPOCH":1847,"BSTAR":0.0001158494,"MEAN_MOTION_DOT":1.86e-6,"MEAN_MOTION_DDOT":0},{"OBJECT_NAME":"SL-14 R/B","OBJECT_ID":"1987-038B","EPOCH":"2026-03-31T23:58:07.069152","MEAN_MOTION":14.85390402,"ECCENTRICITY":0.0020769,"INCLINATION":82.4977,"RA_OF_ASC_NODE":275.7851,"ARG_OF_PERICENTER":90.9284,"MEAN_ANOMALY":269.4312,"EPHEMERIS_TYPE":0,"CLASSIFICATION_TYPE":"U","NORAD_CAT_ID":17912,"ELEMENT_SET_NO":999,"REV_AT_EPOCH":8254,"BSTAR":7.192e-5,"MEAN_MOTION_DOT":6.46e-6,"MEAN_MOTION_DDOT":0},{"OBJECT_NAME":"COSMOS 1844","OBJECT_ID":"1987-041A","EPOCH":"2026-04-01T04:05:15.325728","MEAN_MOTION":14.14559391,"ECCENTRICITY":0.0031278,"INCLINATION":70.9016,"RA_OF_ASC_NODE":346.7602,"ARG_OF_PERICENTER":344.9396,"MEAN_ANOMALY":15.0791,"EPHEMERIS_TYPE":0,"CLASSIFICATION_TYPE":"U","NORAD_CAT_ID":17973,"ELEMENT_SET_NO":999,"REV_AT_EPOCH":676,"BSTAR":0.0002298,"MEAN_MOTION_DOT":3.95e-6,"MEAN_MOTION_DDOT":0},{"OBJECT_NAME":"SL-14 R/B","OBJECT_ID":"1987-055B","EPOCH":"2026-04-01T04:10:04.954944","MEAN_MOTION":14.85651405,"ECCENTRICITY":0.0019342,"INCLINATION":82.5001,"RA_OF_ASC_NODE":327.8433,"ARG_OF_PERICENTER":301.7028,"MEAN_ANOMALY":58.2302,"EPHEMERIS_TYPE":0,"CLASSIFICATION_TYPE":"U","NORAD_CAT_ID":18153,"ELEMENT_SET_NO":999,"REV_AT_EPOCH":7327,"BSTAR":4.9636e-5,"MEAN_MOTION_DOT":4.55e-6,"MEAN_MOTION_DDOT":0},{"OBJECT_NAME":"COSMOS 1867","OBJECT_ID":"1987-060A","EPOCH":"2026-04-01T03:30:35.760672","MEAN_MOTION":14.31506527,"ECCENTRICITY":0.0014883,"INCLINATION":65.0098,"RA_OF_ASC_NODE":243.8124,"ARG_OF_PERICENTER":279.9768,"MEAN_ANOMALY":79.9636,"EPHEMERIS_TYPE":0,"CLASSIFICATION_TYPE":"U","NORAD_CAT_ID":18187,"ELEMENT_SET_NO":999,"REV_AT_EPOCH":2315,"BSTAR":2.5275e-5,"MEAN_MOTION_DOT":-3.3e-7,"MEAN_MOTION_DDOT":0},{"OBJECT_NAME":"SL-14 R/B","OBJECT_ID":"1988-001B","EPOCH":"2026-04-01T04:05:39.261120","MEAN_MOTION":14.85552239,"ECCENTRICITY":0.001862,"INCLINATION":82.5158,"RA_OF_ASC_NODE":174.223,"ARG_OF_PERICENTER":159.6846,"MEAN_ANOMALY":200.5115,"EPHEMERIS_TYPE":0,"CLASSIFICATION_TYPE":"U","NORAD_CAT_ID":18749,"ELEMENT_SET_NO":999,"REV_AT_EPOCH":4536,"BSTAR":5.8162e-5,"MEAN_MOTION_DOT":5.28e-6,"MEAN_MOTION_DDOT":0},{"OBJECT_NAME":"COSMOS 1933","OBJECT_ID":"1988-020A","EPOCH":"2026-03-31T20:54:50.414976","MEAN_MOTION":15.18198156,"ECCENTRICITY":0.0005432,"INCLINATION":82.5124,"RA_OF_ASC_NODE":228.96,"ARG_OF_PERICENTER":116.1924,"MEAN_ANOMALY":243.9869,"EPHEMERIS_TYPE":0,"CLASSIFICATION_TYPE":"U","NORAD_CAT_ID":18958,"ELEMENT_SET_NO":999,"REV_AT_EPOCH":5359,"BSTAR":0.00030543945,"MEAN_MOTION_DOT":6.276e-5,"MEAN_MOTION_DDOT":0},{"OBJECT_NAME":"SL-3 R/B","OBJECT_ID":"1988-032B","EPOCH":"2026-04-01T04:20:06.958176","MEAN_MOTION":15.20158738,"ECCENTRICITY":0.0026702,"INCLINATION":97.5214,"RA_OF_ASC_NODE":74.3599,"ARG_OF_PERICENTER":151.9595,"MEAN_ANOMALY":208.3085,"EPHEMERIS_TYPE":0,"CLASSIFICATION_TYPE":"U","NORAD_CAT_ID":19046,"ELEMENT_SET_NO":999,"REV_AT_EPOCH":5552,"BSTAR":0.00024961,"MEAN_MOTION_DOT":5.381e-5,"MEAN_MOTION_DDOT":0},{"OBJECT_NAME":"SL-16 R/B","OBJECT_ID":"1988-039B","EPOCH":"2026-04-01T04:13:28.000128","MEAN_MOTION":14.19620187,"ECCENTRICITY":0.0023755,"INCLINATION":71.0172,"RA_OF_ASC_NODE":20.9995,"ARG_OF_PERICENTER":302.1893,"MEAN_ANOMALY":57.6928,"EPHEMERIS_TYPE":0,"CLASSIFICATION_TYPE":"U","NORAD_CAT_ID":19120,"ELEMENT_SET_NO":999,"REV_AT_EPOCH":96157,"BSTAR":3.9803e-5,"MEAN_MOTION_DOT":3.6e-7,"MEAN_MOTION_DDOT":0},{"OBJECT_NAME":"COSMOS 1953","OBJECT_ID":"1988-050A","EPOCH":"2026-04-01T04:59:56.132448","MEAN_MOTION":15.28873562,"ECCENTRICITY":0.0012139,"INCLINATION":82.507,"RA_OF_ASC_NODE":135.5931,"ARG_OF_PERICENTER":52.4869,"MEAN_ANOMALY":307.7472,"EPHEMERIS_TYPE":0,"CLASSIFICATION_TYPE":"U","NORAD_CAT_ID":19210,"ELEMENT_SET_NO":999,"REV_AT_EPOCH":4122,"BSTAR":0.00024576,"MEAN_MOTION_DOT":6.94e-5,"MEAN_MOTION_DDOT":0}]
