SL-14 R/B               
1 16496U 86006B   26091.13289793  .00001271  00000+0  13238-3 0  9996
2 16496  82.5256 238.6100 0076051 197.2502 162.6130 14.86853439152548
COSMOS 1743             
1 16719U 86034A   26091.16487256  .00061283  00000+0  73956-3 0  9994
2 16719  82.5312  50.2086 0005145 162.0075 198.1365 15.60504561183754
SL-14 R/B               
1 16792U 86046B   26091.16905847  .00000675  00000+0  74774-4 0  9997
2 16792  82.4809  58.9367 0023838 150.2972 209.9603 14.85613210129749
SL-14 R/B               
1 16882U 86055B   26091.09593530  .00000592  00000+0  65368-4 0  9998
2 16882  82.5169 105.6080 0017345 257.0214 161.4915 14.85663219122691
AJISAI (EGS)            
1 16908U 86061A   26091.21871242 -.00000107  00000+0 -69829-4 0  9997
2 16908  50.0118  24.0703 0011352 345.0254 161.7588 12.44515609470804
SL-14 R/B               
1 17567U 87024B   26091.19426574  .00000540  00000+0  58699-4 0  9992
2 17567  82.5258  71.6056 0018119 181.2581 178.8593 14.86153927 91477
COSMOS 1833             
1 17589U 87027A   26090.94670700 -.00000294  00000+0 -13136-3 0  9997
2 17589  70.9168 279.2366 0023119 181.5532 178.5522 14.13045976 13463
SL-16 R/B               
1 17590U 87027B   26090.78521866  .00000186  00000+0  11585-3 0  9993
2 17590  71.0019 229.9302 0002882  87.8147 272.3307 14.17166527 18478
SL-14 R/B               
1 17912U 87038B   26090.99869293  .00000646  00000+0  71920-4 0  9996
2 17912  82.4977 275.7851 0020769  90.9284 269.4312 14.85390402 82542
COSMOS 1844             
1 17973U 87041A   26091.17031627  .00000395  00000+0  22980-3 0  9992
2 17973  70.9016 346.7602 0031278 344.9396  15.0791 14.14559391  6763
SL-14 R/B               
1 18153U 87055B   26091.17366846  .00000455  00000+0  49636-4 0  9997
2 18153  82.5001 327.8433 0019342 301.7028  58.2302 14.85651405 73274
COSMOS 1867             
1 18187U 87060A   26091.14624723 -.00000033  00000+0  25275-4 0  9994
2 18187  65.0098 243.8124 0014883 279.9768  79.9636 14.31506527 23156
SL-14 R/B               
1 18749U 88001B   26091.17059330  .00000528  00000+0  58162-4 0  9992
2 18749  82.5158 174.2230 0018620 159.6846 200.5115 14.85552239 45361
COSMOS 1933             
1 18958U 88020A   26090.87141684  .00006276  00000+0  30544-3 0  9994
2 18958  82.5124 228.9600 0005432 116.1924 243.9869 15.18198156 53598
SL-3 R/B                
1 19046U 88032B   26091.18063609  .00005381  00000+0  24961-3 0  9993
2 19046  97.5214  74.3599 0026702 151.9595 208.3085 15.20158738 55522
SL-16 R/B               
1 19120U 88039B   26091.17601852  .00000036  00000+0  39803-4 0  9994
2 19120  71.0172  20.9995 0023755 302.1893  57.6928 14.19620187961579
COSMOS 1953             
1 19210U 88050A   26091.20828857  .00006940  00000+0  24576-3 0  9997
2 19210  82.5070 135.5931 0012139  52.4869 307.7472 15.28873562 41220
